[{"OBJECT_NAME":"STARLINK-31569","OBJECT_ID":"2024-097Y","EPOCH":"2026-03-09T13:02:26.112192","MEAN_MOTION":15.27575028,"ECCENTRICITY":9.71e-5,"INCLINATION":42.9989,"RA_OF_ASC_NODE":275.2507,"ARG_OF_PERICENTER":265.8259,"MEAN_ANOMALY":94.2482,"EPHEMERIS_TYPE":0,"CLASSIFICATION_TYPE":"U","NORAD_CAT_ID":59857,"ELEMENT_SET_NO":999,"REV_AT_EPOCH":10189,"BSTAR":-8.152921e-6,"MEAN_MOTION_DOT":-4.86e-6,"MEAN_MOTION_DDOT":0},{"OBJECT_NAME":"CZ-2C DEB","OBJECT_ID":"2026-009C","EPOCH":"2026-03-09T19:20:16.840608","MEAN_MOTION":15.15876918,"ECCENTRICITY":0.01015815,"INCLINATION":97.2202,"RA_OF_ASC_NODE":140.8028,"ARG_OF_PERICENTER":36.3959,"MEAN_ANOMALY":324.4125,"EPHEMERIS_TYPE":0,"CLASSIFICATION_TYPE":"U","NORAD_CAT_ID":67586,"ELEMENT_SET_NO":999,"REV_AT_EPOCH":810,"BSTAR":0.0025681251,"MEAN_MOTION_DOT":0.0005635,"MEAN_MOTION_DDOT":0}]
